<?xml version="1.0" encoding="UTF-8"?>
<gpx version="1.1" creator="gpx-course-splitter demo" xmlns="http://www.topografix.com/GPX/1/1">
  <metadata><name>Demo route (synthetic sample data)</name></metadata>
  <wpt lat="39.041953" lon="-106.194823"><ele>3308.6</ele><name>Sample Spring</name><sym>Water</sym></wpt>
  <wpt lat="39.111171" lon="-106.192889"><ele>3245.5</ele><name>Sample Creek Crossing</name><sym>Water</sym></wpt>
  <wpt lat="39.176558" lon="-106.202532"><ele>3592.5</ele><name>Sample Pass</name><sym>Summit</sym></wpt>
  <wpt lat="39.257151" lon="-106.221035"><ele>3105.5</ele><name>Sample Trailhead Resupply</name><sym>Food</sym></wpt>
  <wpt lat="39.300088" lon="-106.289814"><ele>2997.7</ele><name>Sample Water Tank</name><sym>Water</sym></wpt>
  <wpt lat="39.349923" lon="-106.365054"><ele>2624.8</ele><name>Sample Cache Box</name><sym>Water</sym></wpt>
  <wpt lat="39.364990" lon="-106.460053"><ele>2678.0</ele><name>Sample Lake</name><sym>Water</sym></wpt>
  <wpt lat="39.362654" lon="-106.532463"><ele>2988.5</ele><name>Sample Town Stop</name><sym>Food</sym></wpt>
  <wpt lat="39.369339" lon="-106.577749"><ele>2937.4</ele><name>Sample Far Spring (off route)</name><sym>Water</sym></wpt>
  <trk><name>Demo route</name><trkseg>
    <trkpt lat="39.000590" lon="-106.199515"><ele>2900.0</ele></trkpt>
    <trkpt lat="39.001202" lon="-106.199079"><ele>2908.8</ele></trkpt>
    <trkpt lat="39.001805" lon="-106.198621"><ele>2917.6</ele></trkpt>
    <trkpt lat="39.002434" lon="-106.198225"><ele>2926.3</ele></trkpt>
    <trkpt lat="39.003060" lon="-106.197823"><ele>2935.1</ele></trkpt>
    <trkpt lat="39.003694" lon="-106.197440"><ele>2943.9</ele></trkpt>
    <trkpt lat="39.004349" lon="-106.197122"><ele>2952.6</ele></trkpt>
    <trkpt lat="39.005004" lon="-106.196804"><ele>2961.3</ele></trkpt>
    <trkpt lat="39.005677" lon="-106.196556"><ele>2970.0</ele></trkpt>
    <trkpt lat="39.006352" lon="-106.196317"><ele>2978.6</ele></trkpt>
    <trkpt lat="39.007039" lon="-106.196146"><ele>2987.2</ele></trkpt>
    <trkpt lat="39.007734" lon="-106.196040"><ele>2995.8</ele></trkpt>
    <trkpt lat="39.008430" lon="-106.195945"><ele>3004.4</ele></trkpt>
    <trkpt lat="39.009121" lon="-106.195797"><ele>3012.9</ele></trkpt>
    <trkpt lat="39.009817" lon="-106.195708"><ele>3021.3</ele></trkpt>
    <trkpt lat="39.010516" lon="-106.195663"><ele>3029.7</ele></trkpt>
    <trkpt lat="39.011214" lon="-106.195597"><ele>3038.1</ele></trkpt>
    <trkpt lat="39.011906" lon="-106.195457"><ele>3046.3</ele></trkpt>
    <trkpt lat="39.012596" lon="-106.195304"><ele>3054.6</ele></trkpt>
    <trkpt lat="39.013287" lon="-106.195166"><ele>3062.7</ele></trkpt>
    <trkpt lat="39.013967" lon="-106.194951"><ele>3070.8</ele></trkpt>
    <trkpt lat="39.014658" lon="-106.194807"><ele>3078.8</ele></trkpt>
    <trkpt lat="39.015340" lon="-106.194605"><ele>3086.8</ele></trkpt>
    <trkpt lat="39.016028" lon="-106.194434"><ele>3094.6</ele></trkpt>
    <trkpt lat="39.016722" lon="-106.194319"><ele>3102.4</ele></trkpt>
    <trkpt lat="39.017421" lon="-106.194264"><ele>3110.1</ele></trkpt>
    <trkpt lat="39.018120" lon="-106.194238"><ele>3117.8</ele></trkpt>
    <trkpt lat="39.018818" lon="-106.194160"><ele>3125.3</ele></trkpt>
    <trkpt lat="39.019517" lon="-106.194131"><ele>3132.7</ele></trkpt>
    <trkpt lat="39.020217" lon="-106.194088"><ele>3140.1</ele></trkpt>
    <trkpt lat="39.020915" lon="-106.194020"><ele>3147.3</ele></trkpt>
    <trkpt lat="39.021614" lon="-106.193971"><ele>3154.4</ele></trkpt>
    <trkpt lat="39.022312" lon="-106.193912"><ele>3161.5</ele></trkpt>
    <trkpt lat="39.023012" lon="-106.193922"><ele>3168.4</ele></trkpt>
    <trkpt lat="39.023709" lon="-106.194001"><ele>3175.2</ele></trkpt>
    <trkpt lat="39.024403" lon="-106.194125"><ele>3181.9</ele></trkpt>
    <trkpt lat="39.025099" lon="-106.194218"><ele>3188.5</ele></trkpt>
    <trkpt lat="39.025794" lon="-106.194321"><ele>3195.0</ele></trkpt>
    <trkpt lat="39.026487" lon="-106.194451"><ele>3201.4</ele></trkpt>
    <trkpt lat="39.027181" lon="-106.194565"><ele>3207.6</ele></trkpt>
    <trkpt lat="39.027875" lon="-106.194685"><ele>3213.8</ele></trkpt>
    <trkpt lat="39.028565" lon="-106.194834"><ele>3219.8</ele></trkpt>
    <trkpt lat="39.029261" lon="-106.194933"><ele>3225.6</ele></trkpt>
    <trkpt lat="39.029959" lon="-106.194997"><ele>3231.4</ele></trkpt>
    <trkpt lat="39.030655" lon="-106.195101"><ele>3237.0</ele></trkpt>
    <trkpt lat="39.031351" lon="-106.195189"><ele>3242.5</ele></trkpt>
    <trkpt lat="39.032048" lon="-106.195271"><ele>3247.9</ele></trkpt>
    <trkpt lat="39.032748" lon="-106.195290"><ele>3253.1</ele></trkpt>
    <trkpt lat="39.033448" lon="-106.195269"><ele>3258.2</ele></trkpt>
    <trkpt lat="39.034148" lon="-106.195279"><ele>3263.2</ele></trkpt>
    <trkpt lat="39.034846" lon="-106.195208"><ele>3268.0</ele></trkpt>
    <trkpt lat="39.035546" lon="-106.195197"><ele>3272.7</ele></trkpt>
    <trkpt lat="39.036246" lon="-106.195196"><ele>3277.2</ele></trkpt>
    <trkpt lat="39.036945" lon="-106.195150"><ele>3281.6</ele></trkpt>
    <trkpt lat="39.037645" lon="-106.195157"><ele>3285.9</ele></trkpt>
    <trkpt lat="39.038345" lon="-106.195164"><ele>3290.0</ele></trkpt>
    <trkpt lat="39.039042" lon="-106.195242"><ele>3294.0</ele></trkpt>
    <trkpt lat="39.039741" lon="-106.195289"><ele>3297.9</ele></trkpt>
    <trkpt lat="39.040441" lon="-106.195291"><ele>3301.6</ele></trkpt>
    <trkpt lat="39.041141" lon="-106.195278"><ele>3305.1</ele></trkpt>
    <trkpt lat="39.041839" lon="-106.195200"><ele>3308.6</ele></trkpt>
    <trkpt lat="39.042538" lon="-106.195150"><ele>3311.8</ele></trkpt>
    <trkpt lat="39.043234" lon="-106.195064"><ele>3315.0</ele></trkpt>
    <trkpt lat="39.043930" lon="-106.194961"><ele>3318.0</ele></trkpt>
    <trkpt lat="39.044624" lon="-106.194841"><ele>3320.8</ele></trkpt>
    <trkpt lat="39.045318" lon="-106.194724"><ele>3323.5</ele></trkpt>
    <trkpt lat="39.046005" lon="-106.194550"><ele>3326.1</ele></trkpt>
    <trkpt lat="39.046678" lon="-106.194303"><ele>3328.5</ele></trkpt>
    <trkpt lat="39.047351" lon="-106.194056"><ele>3330.8</ele></trkpt>
    <trkpt lat="39.048017" lon="-106.193781"><ele>3333.0</ele></trkpt>
    <trkpt lat="39.048698" lon="-106.193571"><ele>3335.0</ele></trkpt>
    <trkpt lat="39.049372" lon="-106.193326"><ele>3336.9</ele></trkpt>
    <trkpt lat="39.050039" lon="-106.193055"><ele>3338.6</ele></trkpt>
    <trkpt lat="39.050685" lon="-106.192705"><ele>3340.2</ele></trkpt>
    <trkpt lat="39.051312" lon="-106.192305"><ele>3341.7</ele></trkpt>
    <trkpt lat="39.051949" lon="-106.191933"><ele>3343.1</ele></trkpt>
    <trkpt lat="39.052592" lon="-106.191574"><ele>3344.3</ele></trkpt>
    <trkpt lat="39.053224" lon="-106.191188"><ele>3345.4</ele></trkpt>
    <trkpt lat="39.053879" lon="-106.190870"><ele>3346.3</ele></trkpt>
    <trkpt lat="39.054535" lon="-106.190554"><ele>3347.1</ele></trkpt>
    <trkpt lat="39.055203" lon="-106.190285"><ele>3347.8</ele></trkpt>
    <trkpt lat="39.055883" lon="-106.190073"><ele>3348.4</ele></trkpt>
    <trkpt lat="39.056574" lon="-106.189928"><ele>3348.9</ele></trkpt>
    <trkpt lat="39.057258" lon="-106.189736"><ele>3349.2</ele></trkpt>
    <trkpt lat="39.057950" lon="-106.189600"><ele>3349.5</ele></trkpt>
    <trkpt lat="39.058646" lon="-106.189501"><ele>3349.6</ele></trkpt>
    <trkpt lat="39.059343" lon="-106.189416"><ele>3349.6</ele></trkpt>
    <trkpt lat="39.060033" lon="-106.189268"><ele>3349.4</ele></trkpt>
    <trkpt lat="39.060730" lon="-106.189183"><ele>3349.2</ele></trkpt>
    <trkpt lat="39.061427" lon="-106.189104"><ele>3348.9</ele></trkpt>
    <trkpt lat="39.062124" lon="-106.189012"><ele>3348.5</ele></trkpt>
    <trkpt lat="39.062813" lon="-106.188856"><ele>3347.9</ele></trkpt>
    <trkpt lat="39.063494" lon="-106.188645"><ele>3347.3</ele></trkpt>
    <trkpt lat="39.064161" lon="-106.188374"><ele>3346.6</ele></trkpt>
    <trkpt lat="39.064836" lon="-106.188134"><ele>3345.7</ele></trkpt>
    <trkpt lat="39.065513" lon="-106.187903"><ele>3344.8</ele></trkpt>
    <trkpt lat="39.066193" lon="-106.187692"><ele>3343.8</ele></trkpt>
    <trkpt lat="39.066860" lon="-106.187417"><ele>3342.8</ele></trkpt>
    <trkpt lat="39.067506" lon="-106.187069"><ele>3341.6</ele></trkpt>
    <trkpt lat="39.068166" lon="-106.186771"><ele>3340.3</ele></trkpt>
    <trkpt lat="39.068838" lon="-106.186519"><ele>3339.0</ele></trkpt>
    <trkpt lat="39.069519" lon="-106.186306"><ele>3337.6</ele></trkpt>
    <trkpt lat="39.070205" lon="-106.186132"><ele>3336.2</ele></trkpt>
    <trkpt lat="39.070892" lon="-106.185957"><ele>3334.6</ele></trkpt>
    <trkpt lat="39.071576" lon="-106.185764"><ele>3333.1</ele></trkpt>
    <trkpt lat="39.072265" lon="-106.185606"><ele>3331.4</ele></trkpt>
    <trkpt lat="39.072962" lon="-106.185524"><ele>3329.7</ele></trkpt>
    <trkpt lat="39.073660" lon="-106.185452"><ele>3327.9</ele></trkpt>
    <trkpt lat="39.074359" lon="-106.185398"><ele>3326.1</ele></trkpt>
    <trkpt lat="39.075057" lon="-106.185330"><ele>3324.3</ele></trkpt>
    <trkpt lat="39.075748" lon="-106.185186"><ele>3322.4</ele></trkpt>
    <trkpt lat="39.076434" lon="-106.185008"><ele>3320.4</ele></trkpt>
    <trkpt lat="39.077119" lon="-106.184824"><ele>3318.5</ele></trkpt>
    <trkpt lat="39.077801" lon="-106.184618"><ele>3316.4</ele></trkpt>
    <trkpt lat="39.078476" lon="-106.184382"><ele>3314.4</ele></trkpt>
    <trkpt lat="39.079164" lon="-106.184213"><ele>3312.3</ele></trkpt>
    <trkpt lat="39.079840" lon="-106.183979"><ele>3310.2</ele></trkpt>
    <trkpt lat="39.080505" lon="-106.183697"><ele>3308.1</ele></trkpt>
    <trkpt lat="39.081153" lon="-106.183356"><ele>3306.0</ele></trkpt>
    <trkpt lat="39.081785" lon="-106.182967"><ele>3303.9</ele></trkpt>
    <trkpt lat="39.082421" lon="-106.182592"><ele>3301.7</ele></trkpt>
    <trkpt lat="39.083062" lon="-106.182230"><ele>3299.6</ele></trkpt>
    <trkpt lat="39.083721" lon="-106.181924"><ele>3297.4</ele></trkpt>
    <trkpt lat="39.084372" lon="-106.181595"><ele>3295.3</ele></trkpt>
    <trkpt lat="39.085042" lon="-106.181331"><ele>3293.1</ele></trkpt>
    <trkpt lat="39.085724" lon="-106.181131"><ele>3291.0</ele></trkpt>
    <trkpt lat="39.086414" lon="-106.180976"><ele>3288.8</ele></trkpt>
    <trkpt lat="39.087109" lon="-106.180872"><ele>3286.7</ele></trkpt>
    <trkpt lat="39.087806" lon="-106.180791"><ele>3284.6</ele></trkpt>
    <trkpt lat="39.088506" lon="-106.180781"><ele>3282.5</ele></trkpt>
    <trkpt lat="39.089204" lon="-106.180849"><ele>3280.5</ele></trkpt>
    <trkpt lat="39.089898" lon="-106.180970"><ele>3278.4</ele></trkpt>
    <trkpt lat="39.090583" lon="-106.181153"><ele>3276.4</ele></trkpt>
    <trkpt lat="39.091266" lon="-106.181355"><ele>3274.5</ele></trkpt>
    <trkpt lat="39.091932" lon="-106.181630"><ele>3272.5</ele></trkpt>
    <trkpt lat="39.092612" lon="-106.181843"><ele>3270.7</ele></trkpt>
    <trkpt lat="39.093296" lon="-106.182037"><ele>3268.8</ele></trkpt>
    <trkpt lat="39.093970" lon="-106.182283"><ele>3267.0</ele></trkpt>
    <trkpt lat="39.094634" lon="-106.182566"><ele>3265.3</ele></trkpt>
    <trkpt lat="39.095293" lon="-106.182871"><ele>3263.6</ele></trkpt>
    <trkpt lat="39.095947" lon="-106.183194"><ele>3261.9</ele></trkpt>
    <trkpt lat="39.096582" lon="-106.183572"><ele>3260.3</ele></trkpt>
    <trkpt lat="39.097236" lon="-106.183896"><ele>3258.8</ele></trkpt>
    <trkpt lat="39.097909" lon="-106.184142"><ele>3257.3</ele></trkpt>
    <trkpt lat="39.098582" lon="-106.184392"><ele>3255.9</ele></trkpt>
    <trkpt lat="39.099254" lon="-106.184642"><ele>3254.6</ele></trkpt>
    <trkpt lat="39.099911" lon="-106.184955"><ele>3253.4</ele></trkpt>
    <trkpt lat="39.100549" lon="-106.185327"><ele>3252.2</ele></trkpt>
    <trkpt lat="39.101179" lon="-106.185719"><ele>3251.1</ele></trkpt>
    <trkpt lat="39.101796" lon="-106.186145"><ele>3250.0</ele></trkpt>
    <trkpt lat="39.102432" lon="-106.186521"><ele>3249.1</ele></trkpt>
    <trkpt lat="39.103050" lon="-106.186946"><ele>3248.2</ele></trkpt>
    <trkpt lat="39.103637" lon="-106.187436"><ele>3247.4</ele></trkpt>
    <trkpt lat="39.104254" lon="-106.187862"><ele>3246.7</ele></trkpt>
    <trkpt lat="39.104874" lon="-106.188282"><ele>3246.1</ele></trkpt>
    <trkpt lat="39.105471" lon="-106.188752"><ele>3245.5</ele></trkpt>
    <trkpt lat="39.106072" lon="-106.189215"><ele>3245.1</ele></trkpt>
    <trkpt lat="39.106641" lon="-106.189741"><ele>3244.8</ele></trkpt>
    <trkpt lat="39.107212" lon="-106.190262"><ele>3244.5</ele></trkpt>
    <trkpt lat="39.107816" lon="-106.190718"><ele>3244.4</ele></trkpt>
    <trkpt lat="39.108442" lon="-106.191121"><ele>3244.3</ele></trkpt>
    <trkpt lat="39.109080" lon="-106.191495"><ele>3244.3</ele></trkpt>
    <trkpt lat="39.109704" lon="-106.191902"><ele>3244.5</ele></trkpt>
    <trkpt lat="39.110321" lon="-106.192329"><ele>3244.7</ele></trkpt>
    <trkpt lat="39.110917" lon="-106.192802"><ele>3245.1</ele></trkpt>
    <trkpt lat="39.111531" lon="-106.193236"><ele>3245.5</ele></trkpt>
    <trkpt lat="39.112146" lon="-106.193665"><ele>3246.1</ele></trkpt>
    <trkpt lat="39.112778" lon="-106.194054"><ele>3246.7</ele></trkpt>
    <trkpt lat="39.113400" lon="-106.194467"><ele>3247.5</ele></trkpt>
    <trkpt lat="39.114006" lon="-106.194919"><ele>3248.3</ele></trkpt>
    <trkpt lat="39.114631" lon="-106.195326"><ele>3249.3</ele></trkpt>
    <trkpt lat="39.115280" lon="-106.195662"><ele>3250.4</ele></trkpt>
    <trkpt lat="39.115945" lon="-106.195944"><ele>3251.6</ele></trkpt>
    <trkpt lat="39.116621" lon="-106.196179"><ele>3252.9</ele></trkpt>
    <trkpt lat="39.117306" lon="-106.196363"><ele>3254.3</ele></trkpt>
    <trkpt lat="39.117997" lon="-106.196509"><ele>3255.8</ele></trkpt>
    <trkpt lat="39.118682" lon="-106.196698"><ele>3257.4</ele></trkpt>
    <trkpt lat="39.119366" lon="-106.196886"><ele>3259.1</ele></trkpt>
    <trkpt lat="39.120047" lon="-106.197096"><ele>3260.9</ele></trkpt>
    <trkpt lat="39.120711" lon="-106.197381"><ele>3262.9</ele></trkpt>
    <trkpt lat="39.121354" lon="-106.197737"><ele>3264.9</ele></trkpt>
    <trkpt lat="39.121986" lon="-106.198127"><ele>3267.1</ele></trkpt>
    <trkpt lat="39.122603" lon="-106.198552"><ele>3269.3</ele></trkpt>
    <trkpt lat="39.123232" lon="-106.198950"><ele>3271.7</ele></trkpt>
    <trkpt lat="39.123883" lon="-106.199280"><ele>3274.1</ele></trkpt>
    <trkpt lat="39.124531" lon="-106.199620"><ele>3276.7</ele></trkpt>
    <trkpt lat="39.125199" lon="-106.199893"><ele>3279.3</ele></trkpt>
    <trkpt lat="39.125881" lon="-106.200091"><ele>3282.1</ele></trkpt>
    <trkpt lat="39.126575" lon="-106.200217"><ele>3285.0</ele></trkpt>
    <trkpt lat="39.127265" lon="-106.200366"><ele>3287.9</ele></trkpt>
    <trkpt lat="39.127949" lon="-106.200561"><ele>3291.0</ele></trkpt>
    <trkpt lat="39.128624" lon="-106.200799"><ele>3294.1</ele></trkpt>
    <trkpt lat="39.129287" lon="-106.201086"><ele>3297.4</ele></trkpt>
    <trkpt lat="39.129938" lon="-106.201420"><ele>3300.7</ele></trkpt>
    <trkpt lat="39.130593" lon="-106.201736"><ele>3304.1</ele></trkpt>
    <trkpt lat="39.131265" lon="-106.201991"><ele>3307.6</ele></trkpt>
    <trkpt lat="39.131947" lon="-106.202195"><ele>3311.2</ele></trkpt>
    <trkpt lat="39.132628" lon="-106.202403"><ele>3314.9</ele></trkpt>
    <trkpt lat="39.133313" lon="-106.202589"><ele>3318.7</ele></trkpt>
    <trkpt lat="39.134004" lon="-106.202728"><ele>3322.5</ele></trkpt>
    <trkpt lat="39.134686" lon="-106.202935"><ele>3326.5</ele></trkpt>
    <trkpt lat="39.135371" lon="-106.203118"><ele>3330.5</ele></trkpt>
    <trkpt lat="39.136065" lon="-106.203238"><ele>3334.6</ele></trkpt>
    <trkpt lat="39.136763" lon="-106.203314"><ele>3338.7</ele></trkpt>
    <trkpt lat="39.137462" lon="-106.203351"><ele>3342.9</ele></trkpt>
    <trkpt lat="39.138161" lon="-106.203394"><ele>3347.2</ele></trkpt>
    <trkpt lat="39.138857" lon="-106.203491"><ele>3351.5</ele></trkpt>
    <trkpt lat="39.139556" lon="-106.203543"><ele>3355.9</ele></trkpt>
    <trkpt lat="39.140253" lon="-106.203625"><ele>3360.4</ele></trkpt>
    <trkpt lat="39.140953" lon="-106.203660"><ele>3364.9</ele></trkpt>
    <trkpt lat="39.141652" lon="-106.203621"><ele>3369.5</ele></trkpt>
    <trkpt lat="39.142352" lon="-106.203601"><ele>3374.1</ele></trkpt>
    <trkpt lat="39.143052" lon="-106.203599"><ele>3378.8</ele></trkpt>
    <trkpt lat="39.143749" lon="-106.203527"><ele>3383.5</ele></trkpt>
    <trkpt lat="39.144445" lon="-106.203421"><ele>3388.3</ele></trkpt>
    <trkpt lat="39.145144" lon="-106.203371"><ele>3393.0</ele></trkpt>
    <trkpt lat="39.145843" lon="-106.203385"><ele>3397.9</ele></trkpt>
    <trkpt lat="39.146541" lon="-106.203457"><ele>3402.7</ele></trkpt>
    <trkpt lat="39.147241" lon="-106.203467"><ele>3407.6</ele></trkpt>
    <trkpt lat="39.147941" lon="-106.203429"><ele>3412.5</ele></trkpt>
    <trkpt lat="39.148640" lon="-106.203451"><ele>3417.4</ele></trkpt>
    <trkpt lat="39.149340" lon="-106.203424"><ele>3422.4</ele></trkpt>
    <trkpt lat="39.150035" lon="-106.203321"><ele>3427.3</ele></trkpt>
    <trkpt lat="39.150729" lon="-106.203196"><ele>3432.3</ele></trkpt>
    <trkpt lat="39.151425" lon="-106.203097"><ele>3437.3</ele></trkpt>
    <trkpt lat="39.152120" lon="-106.202994"><ele>3442.3</ele></trkpt>
    <trkpt lat="39.152819" lon="-106.202954"><ele>3447.3</ele></trkpt>
    <trkpt lat="39.153519" lon="-106.202995"><ele>3452.3</ele></trkpt>
    <trkpt lat="39.154218" lon="-106.202963"><ele>3457.2</ele></trkpt>
    <trkpt lat="39.154917" lon="-106.202910"><ele>3462.2</ele></trkpt>
    <trkpt lat="39.155616" lon="-106.202855"><ele>3467.2</ele></trkpt>
    <trkpt lat="39.156309" lon="-106.202734"><ele>3472.1</ele></trkpt>
    <trkpt lat="39.157004" lon="-106.202626"><ele>3477.0</ele></trkpt>
    <trkpt lat="39.157693" lon="-106.202462"><ele>3481.9</ele></trkpt>
    <trkpt lat="39.158373" lon="-106.202250"><ele>3486.8</ele></trkpt>
    <trkpt lat="39.159061" lon="-106.202086"><ele>3491.6</ele></trkpt>
    <trkpt lat="39.159755" lon="-106.201965"><ele>3496.4</ele></trkpt>
    <trkpt lat="39.160452" lon="-106.201881"><ele>3501.2</ele></trkpt>
    <trkpt lat="39.161151" lon="-106.201843"><ele>3505.9</ele></trkpt>
    <trkpt lat="39.161850" lon="-106.201794"><ele>3510.6</ele></trkpt>
    <trkpt lat="39.162550" lon="-106.201787"><ele>3515.2</ele></trkpt>
    <trkpt lat="39.163250" lon="-106.201797"><ele>3519.8</ele></trkpt>
    <trkpt lat="39.163948" lon="-106.201870"><ele>3524.3</ele></trkpt>
    <trkpt lat="39.164648" lon="-106.201880"><ele>3528.8</ele></trkpt>
    <trkpt lat="39.165347" lon="-106.201918"><ele>3533.2</ele></trkpt>
    <trkpt lat="39.166046" lon="-106.201965"><ele>3537.5</ele></trkpt>
    <trkpt lat="39.166746" lon="-106.202003"><ele>3541.8</ele></trkpt>
    <trkpt lat="39.167445" lon="-106.201978"><ele>3546.0</ele></trkpt>
    <trkpt lat="39.168145" lon="-106.201970"><ele>3550.1</ele></trkpt>
    <trkpt lat="39.168843" lon="-106.201898"><ele>3554.1</ele></trkpt>
    <trkpt lat="39.169541" lon="-106.201829"><ele>3558.1</ele></trkpt>
    <trkpt lat="39.170239" lon="-106.201758"><ele>3562.0</ele></trkpt>
    <trkpt lat="39.170937" lon="-106.201687"><ele>3565.8</ele></trkpt>
    <trkpt lat="39.171637" lon="-106.201698"><ele>3569.4</ele></trkpt>
    <trkpt lat="39.172336" lon="-106.201722"><ele>3573.0</ele></trkpt>
    <trkpt lat="39.173034" lon="-106.201801"><ele>3576.6</ele></trkpt>
    <trkpt lat="39.173722" lon="-106.201963"><ele>3580.0</ele></trkpt>
    <trkpt lat="39.174416" lon="-106.202082"><ele>3583.3</ele></trkpt>
    <trkpt lat="39.175103" lon="-106.202256"><ele>3586.5</ele></trkpt>
    <trkpt lat="39.175789" lon="-106.202438"><ele>3589.5</ele></trkpt>
    <trkpt lat="39.176479" lon="-106.202587"><ele>3592.5</ele></trkpt>
    <trkpt lat="39.177170" lon="-106.202731"><ele>3595.4</ele></trkpt>
    <trkpt lat="39.177857" lon="-106.202907"><ele>3598.1</ele></trkpt>
    <trkpt lat="39.178543" lon="-106.203083"><ele>3600.8</ele></trkpt>
    <trkpt lat="39.179231" lon="-106.203254"><ele>3603.3</ele></trkpt>
    <trkpt lat="39.179924" lon="-106.203382"><ele>3605.7</ele></trkpt>
    <trkpt lat="39.180607" lon="-106.203578"><ele>3607.9</ele></trkpt>
    <trkpt lat="39.181292" lon="-106.203767"><ele>3610.1</ele></trkpt>
    <trkpt lat="39.181968" lon="-106.203999"><ele>3612.1</ele></trkpt>
    <trkpt lat="39.182636" lon="-106.204270"><ele>3613.9</ele></trkpt>
    <trkpt lat="39.183312" lon="-106.204501"><ele>3615.7</ele></trkpt>
    <trkpt lat="39.183989" lon="-106.204735"><ele>3617.3</ele></trkpt>
    <trkpt lat="39.184666" lon="-106.204962"><ele>3618.7</ele></trkpt>
    <trkpt lat="39.185350" lon="-106.205152"><ele>3620.1</ele></trkpt>
    <trkpt lat="39.186043" lon="-106.205279"><ele>3621.2</ele></trkpt>
    <trkpt lat="39.186735" lon="-106.205419"><ele>3622.3</ele></trkpt>
    <trkpt lat="39.187428" lon="-106.205544"><ele>3623.2</ele></trkpt>
    <trkpt lat="39.188121" lon="-106.205671"><ele>3623.9</ele></trkpt>
    <trkpt lat="39.188814" lon="-106.205800"><ele>3624.5</ele></trkpt>
    <trkpt lat="39.189510" lon="-106.205901"><ele>3625.0</ele></trkpt>
    <trkpt lat="39.190204" lon="-106.206013"><ele>3625.3</ele></trkpt>
    <trkpt lat="39.190899" lon="-106.206123"><ele>3625.5</ele></trkpt>
    <trkpt lat="39.191593" lon="-106.206240"><ele>3625.5</ele></trkpt>
    <trkpt lat="39.192292" lon="-106.206289"><ele>3625.4</ele></trkpt>
    <trkpt lat="39.192992" lon="-106.206309"><ele>3625.1</ele></trkpt>
    <trkpt lat="39.193691" lon="-106.206271"><ele>3624.6</ele></trkpt>
    <trkpt lat="39.194386" lon="-106.206164"><ele>3624.0</ele></trkpt>
    <trkpt lat="39.195085" lon="-106.206099"><ele>3623.3</ele></trkpt>
    <trkpt lat="39.195782" lon="-106.206028"><ele>3622.4</ele></trkpt>
    <trkpt lat="39.196474" lon="-106.205888"><ele>3621.3</ele></trkpt>
    <trkpt lat="39.197158" lon="-106.205697"><ele>3620.1</ele></trkpt>
    <trkpt lat="39.197851" lon="-106.205567"><ele>3618.8</ele></trkpt>
    <trkpt lat="39.198549" lon="-106.205501"><ele>3617.2</ele></trkpt>
    <trkpt lat="39.199248" lon="-106.205447"><ele>3615.6</ele></trkpt>
    <trkpt lat="39.199948" lon="-106.205466"><ele>3613.7</ele></trkpt>
    <trkpt lat="39.200646" lon="-106.205530"><ele>3611.8</ele></trkpt>
    <trkpt lat="39.201338" lon="-106.205665"><ele>3609.6</ele></trkpt>
    <trkpt lat="39.202033" lon="-106.205776"><ele>3607.4</ele></trkpt>
    <trkpt lat="39.202731" lon="-106.205844"><ele>3604.9</ele></trkpt>
    <trkpt lat="39.203431" lon="-106.205850"><ele>3602.3</ele></trkpt>
    <trkpt lat="39.204129" lon="-106.205915"><ele>3599.6</ele></trkpt>
    <trkpt lat="39.204828" lon="-106.205947"><ele>3596.7</ele></trkpt>
    <trkpt lat="39.205528" lon="-106.205956"><ele>3593.7</ele></trkpt>
    <trkpt lat="39.206226" lon="-106.206026"><ele>3590.5</ele></trkpt>
    <trkpt lat="39.206926" lon="-106.206035"><ele>3587.2</ele></trkpt>
    <trkpt lat="39.207625" lon="-106.205971"><ele>3583.7</ele></trkpt>
    <trkpt lat="39.208324" lon="-106.205955"><ele>3580.1</ele></trkpt>
    <trkpt lat="39.209021" lon="-106.205868"><ele>3576.4</ele></trkpt>
    <trkpt lat="39.209719" lon="-106.205800"><ele>3572.5</ele></trkpt>
    <trkpt lat="39.210417" lon="-106.205736"><ele>3568.5</ele></trkpt>
    <trkpt lat="39.211109" lon="-106.205595"><ele>3564.3</ele></trkpt>
    <trkpt lat="39.211793" lon="-106.205403"><ele>3560.0</ele></trkpt>
    <trkpt lat="39.212485" lon="-106.205267"><ele>3555.6</ele></trkpt>
    <trkpt lat="39.213178" lon="-106.205144"><ele>3551.0</ele></trkpt>
    <trkpt lat="39.213872" lon="-106.205021"><ele>3546.3</ele></trkpt>
    <trkpt lat="39.214568" lon="-106.204925"><ele>3541.5</ele></trkpt>
    <trkpt lat="39.215267" lon="-106.204881"><ele>3536.6</ele></trkpt>
    <trkpt lat="39.215967" lon="-106.204868"><ele>3531.5</ele></trkpt>
    <trkpt lat="39.216666" lon="-106.204821"><ele>3526.4</ele></trkpt>
    <trkpt lat="39.217366" lon="-106.204853"><ele>3521.1</ele></trkpt>
    <trkpt lat="39.218065" lon="-106.204878"><ele>3515.7</ele></trkpt>
    <trkpt lat="39.218765" lon="-106.204914"><ele>3510.1</ele></trkpt>
    <trkpt lat="39.219459" lon="-106.205030"><ele>3504.5</ele></trkpt>
    <trkpt lat="39.220150" lon="-106.205175"><ele>3498.8</ele></trkpt>
    <trkpt lat="39.220843" lon="-106.205301"><ele>3493.0</ele></trkpt>
    <trkpt lat="39.221536" lon="-106.205426"><ele>3487.0</ele></trkpt>
    <trkpt lat="39.222220" lon="-106.205622"><ele>3481.0</ele></trkpt>
    <trkpt lat="39.222913" lon="-106.205742"><ele>3474.9</ele></trkpt>
    <trkpt lat="39.223611" lon="-106.205817"><ele>3468.6</ele></trkpt>
    <trkpt lat="39.224311" lon="-106.205815"><ele>3462.3</ele></trkpt>
    <trkpt lat="39.225009" lon="-106.205879"><ele>3455.9</ele></trkpt>
    <trkpt lat="39.225705" lon="-106.205982"><ele>3449.5</ele></trkpt>
    <trkpt lat="39.226391" lon="-106.206160"><ele>3442.9</ele></trkpt>
    <trkpt lat="39.227083" lon="-106.206294"><ele>3436.3</ele></trkpt>
    <trkpt lat="39.227771" lon="-106.206465"><ele>3429.6</ele></trkpt>
    <trkpt lat="39.228447" lon="-106.206696"><ele>3422.8</ele></trkpt>
    <trkpt lat="39.229122" lon="-106.206939"><ele>3416.0</ele></trkpt>
    <trkpt lat="39.229808" lon="-106.207118"><ele>3409.1</ele></trkpt>
    <trkpt lat="39.230501" lon="-106.207247"><ele>3402.1</ele></trkpt>
    <trkpt lat="39.231188" lon="-106.207414"><ele>3395.1</ele></trkpt>
    <trkpt lat="39.231867" lon="-106.207638"><ele>3388.1</ele></trkpt>
    <trkpt lat="39.232556" lon="-106.207795"><ele>3381.0</ele></trkpt>
    <trkpt lat="39.233247" lon="-106.207942"><ele>3373.8</ele></trkpt>
    <trkpt lat="39.233941" lon="-106.208056"><ele>3366.6</ele></trkpt>
    <trkpt lat="39.234627" lon="-106.208236"><ele>3359.4</ele></trkpt>
    <trkpt lat="39.235300" lon="-106.208486"><ele>3352.1</ele></trkpt>
    <trkpt lat="39.235979" lon="-106.208706"><ele>3344.9</ele></trkpt>
    <trkpt lat="39.236655" lon="-106.208938"><ele>3337.5</ele></trkpt>
    <trkpt lat="39.237316" lon="-106.209237"><ele>3330.2</ele></trkpt>
    <trkpt lat="39.237993" lon="-106.209467"><ele>3322.9</ele></trkpt>
    <trkpt lat="39.238674" lon="-106.209675"><ele>3315.5</ele></trkpt>
    <trkpt lat="39.239363" lon="-106.209836"><ele>3308.1</ele></trkpt>
    <trkpt lat="39.240041" lon="-106.210062"><ele>3300.7</ele></trkpt>
    <trkpt lat="39.240728" lon="-106.210230"><ele>3293.3</ele></trkpt>
    <trkpt lat="39.241404" lon="-106.210467"><ele>3286.0</ele></trkpt>
    <trkpt lat="39.242090" lon="-106.210646"><ele>3278.6</ele></trkpt>
    <trkpt lat="39.242775" lon="-106.210832"><ele>3271.2</ele></trkpt>
    <trkpt lat="39.243456" lon="-106.211043"><ele>3263.8</ele></trkpt>
    <trkpt lat="39.244138" lon="-106.211244"><ele>3256.5</ele></trkpt>
    <trkpt lat="39.244831" lon="-106.211376"><ele>3249.1</ele></trkpt>
    <trkpt lat="39.245518" lon="-106.211545"><ele>3241.8</ele></trkpt>
    <trkpt lat="39.246196" lon="-106.211771"><ele>3234.6</ele></trkpt>
    <trkpt lat="39.246875" lon="-106.211993"><ele>3227.3</ele></trkpt>
    <trkpt lat="39.247545" lon="-106.212254"><ele>3220.1</ele></trkpt>
    <trkpt lat="39.248199" lon="-106.212574"><ele>3212.9</ele></trkpt>
    <trkpt lat="39.248838" lon="-106.212944"><ele>3205.8</ele></trkpt>
    <trkpt lat="39.249452" lon="-106.213378"><ele>3198.6</ele></trkpt>
    <trkpt lat="39.250048" lon="-106.213853"><ele>3191.6</ele></trkpt>
    <trkpt lat="39.250631" lon="-106.214353"><ele>3184.6</ele></trkpt>
    <trkpt lat="39.251201" lon="-106.214877"><ele>3177.6</ele></trkpt>
    <trkpt lat="39.251790" lon="-106.215365"><ele>3170.7</ele></trkpt>
    <trkpt lat="39.252366" lon="-106.215880"><ele>3163.9</ele></trkpt>
    <trkpt lat="39.252941" lon="-106.216394"><ele>3157.1</ele></trkpt>
    <trkpt lat="39.253494" lon="-106.216949"><ele>3150.4</ele></trkpt>
    <trkpt lat="39.254036" lon="-106.217522"><ele>3143.8</ele></trkpt>
    <trkpt lat="39.254538" lon="-106.218152"><ele>3137.2</ele></trkpt>
    <trkpt lat="39.255018" lon="-106.218809"><ele>3130.7</ele></trkpt>
    <trkpt lat="39.255454" lon="-106.219517"><ele>3124.3</ele></trkpt>
    <trkpt lat="39.255914" lon="-106.220199"><ele>3117.9</ele></trkpt>
    <trkpt lat="39.256379" lon="-106.220874"><ele>3111.7</ele></trkpt>
    <trkpt lat="39.256816" lon="-106.221580"><ele>3105.5</ele></trkpt>
    <trkpt lat="39.257252" lon="-106.222288"><ele>3099.4</ele></trkpt>
    <trkpt lat="39.257730" lon="-106.222947"><ele>3093.4</ele></trkpt>
    <trkpt lat="39.258173" lon="-106.223648"><ele>3087.5</ele></trkpt>
    <trkpt lat="39.258647" lon="-106.224313"><ele>3081.7</ele></trkpt>
    <trkpt lat="39.259116" lon="-106.224984"><ele>3076.0</ele></trkpt>
    <trkpt lat="39.259586" lon="-106.225654"><ele>3070.4</ele></trkpt>
    <trkpt lat="39.260088" lon="-106.226284"><ele>3064.9</ele></trkpt>
    <trkpt lat="39.260582" lon="-106.226925"><ele>3059.5</ele></trkpt>
    <trkpt lat="39.261077" lon="-106.227563"><ele>3054.2</ele></trkpt>
    <trkpt lat="39.261591" lon="-106.228178"><ele>3049.0</ele></trkpt>
    <trkpt lat="39.262145" lon="-106.228730"><ele>3043.9</ele></trkpt>
    <trkpt lat="39.262688" lon="-106.229300"><ele>3039.0</ele></trkpt>
    <trkpt lat="39.263258" lon="-106.229826"><ele>3034.1</ele></trkpt>
    <trkpt lat="39.263844" lon="-106.230321"><ele>3029.4</ele></trkpt>
    <trkpt lat="39.264440" lon="-106.230795"><ele>3024.7</ele></trkpt>
    <trkpt lat="39.265031" lon="-106.231280"><ele>3020.2</ele></trkpt>
    <trkpt lat="39.265612" lon="-106.231783"><ele>3015.8</ele></trkpt>
    <trkpt lat="39.266162" lon="-106.232342"><ele>3011.6</ele></trkpt>
    <trkpt lat="39.266684" lon="-106.232945"><ele>3007.4</ele></trkpt>
    <trkpt lat="39.267169" lon="-106.233597"><ele>3003.4</ele></trkpt>
    <trkpt lat="39.267678" lon="-106.234218"><ele>2999.5</ele></trkpt>
    <trkpt lat="39.268166" lon="-106.234866"><ele>2995.7</ele></trkpt>
    <trkpt lat="39.268625" lon="-106.235548"><ele>2992.0</ele></trkpt>
    <trkpt lat="39.269046" lon="-106.236271"><ele>2988.5</ele></trkpt>
    <trkpt lat="39.269501" lon="-106.236957"><ele>2985.1</ele></trkpt>
    <trkpt lat="39.269993" lon="-106.237601"><ele>2981.8</ele></trkpt>
    <trkpt lat="39.270502" lon="-106.238222"><ele>2978.6</ele></trkpt>
    <trkpt lat="39.270993" lon="-106.238866"><ele>2975.6</ele></trkpt>
    <trkpt lat="39.271463" lon="-106.239536"><ele>2972.7</ele></trkpt>
    <trkpt lat="39.271915" lon="-106.240227"><ele>2969.9</ele></trkpt>
    <trkpt lat="39.272365" lon="-106.240920"><ele>2967.2</ele></trkpt>
    <trkpt lat="39.272783" lon="-106.241645"><ele>2964.7</ele></trkpt>
    <trkpt lat="39.273198" lon="-106.242373"><ele>2962.3</ele></trkpt>
    <trkpt lat="39.273590" lon="-106.243122"><ele>2960.0</ele></trkpt>
    <trkpt lat="39.274032" lon="-106.243824"><ele>2957.8</ele></trkpt>
    <trkpt lat="39.274520" lon="-106.244472"><ele>2955.8</ele></trkpt>
    <trkpt lat="39.275014" lon="-106.245112"><ele>2953.8</ele></trkpt>
    <trkpt lat="39.275487" lon="-106.245779"><ele>2952.1</ele></trkpt>
    <trkpt lat="39.276003" lon="-106.246390"><ele>2950.4</ele></trkpt>
    <trkpt lat="39.276504" lon="-106.247021"><ele>2948.8</ele></trkpt>
    <trkpt lat="39.276995" lon="-106.247666"><ele>2947.4</ele></trkpt>
    <trkpt lat="39.277441" lon="-106.248363"><ele>2946.1</ele></trkpt>
    <trkpt lat="39.277878" lon="-106.249069"><ele>2944.9</ele></trkpt>
    <trkpt lat="39.278314" lon="-106.249777"><ele>2943.8</ele></trkpt>
    <trkpt lat="39.278753" lon="-106.250481"><ele>2942.8</ele></trkpt>
    <trkpt lat="39.279164" lon="-106.251213"><ele>2942.0</ele></trkpt>
    <trkpt lat="39.279578" lon="-106.251942"><ele>2941.3</ele></trkpt>
    <trkpt lat="39.279942" lon="-106.252715"><ele>2940.6</ele></trkpt>
    <trkpt lat="39.280283" lon="-106.253504"><ele>2940.1</ele></trkpt>
    <trkpt lat="39.280581" lon="-106.254323"><ele>2939.7</ele></trkpt>
    <trkpt lat="39.280869" lon="-106.255147"><ele>2939.4</ele></trkpt>
    <trkpt lat="39.281107" lon="-106.255997"><ele>2939.2</ele></trkpt>
    <trkpt lat="39.281290" lon="-106.256870"><ele>2939.1</ele></trkpt>
    <trkpt lat="39.281452" lon="-106.257750"><ele>2939.1</ele></trkpt>
    <trkpt lat="39.281584" lon="-106.258638"><ele>2939.1</ele></trkpt>
    <trkpt lat="39.281729" lon="-106.259523"><ele>2939.3</ele></trkpt>
    <trkpt lat="39.281880" lon="-106.260406"><ele>2939.6</ele></trkpt>
    <trkpt lat="39.282064" lon="-106.261278"><ele>2940.0</ele></trkpt>
    <trkpt lat="39.282271" lon="-106.262143"><ele>2940.4</ele></trkpt>
    <trkpt lat="39.282506" lon="-106.262995"><ele>2941.0</ele></trkpt>
    <trkpt lat="39.282787" lon="-106.263822"><ele>2941.6</ele></trkpt>
    <trkpt lat="39.283059" lon="-106.264656"><ele>2942.3</ele></trkpt>
    <trkpt lat="39.283313" lon="-106.265499"><ele>2943.1</ele></trkpt>
    <trkpt lat="39.283625" lon="-106.266308"><ele>2943.9</ele></trkpt>
    <trkpt lat="39.283899" lon="-106.267140"><ele>2944.8</ele></trkpt>
    <trkpt lat="39.284202" lon="-106.267956"><ele>2945.8</ele></trkpt>
    <trkpt lat="39.284523" lon="-106.268759"><ele>2946.9</ele></trkpt>
    <trkpt lat="39.284794" lon="-106.269593"><ele>2948.0</ele></trkpt>
    <trkpt lat="39.285107" lon="-106.270402"><ele>2949.2</ele></trkpt>
    <trkpt lat="39.285465" lon="-106.271179"><ele>2950.4</ele></trkpt>
    <trkpt lat="39.285839" lon="-106.271944"><ele>2951.7</ele></trkpt>
    <trkpt lat="39.286240" lon="-106.272685"><ele>2953.0</ele></trkpt>
    <trkpt lat="39.286674" lon="-106.273395"><ele>2954.4</ele></trkpt>
    <trkpt lat="39.287074" lon="-106.274137"><ele>2955.8</ele></trkpt>
    <trkpt lat="39.287478" lon="-106.274875"><ele>2957.3</ele></trkpt>
    <trkpt lat="39.287885" lon="-106.275611"><ele>2958.8</ele></trkpt>
    <trkpt lat="39.288328" lon="-106.276312"><ele>2960.4</ele></trkpt>
    <trkpt lat="39.288801" lon="-106.276978"><ele>2961.9</ele></trkpt>
    <trkpt lat="39.289306" lon="-106.277605"><ele>2963.5</ele></trkpt>
    <trkpt lat="39.289819" lon="-106.278220"><ele>2965.2</ele></trkpt>
    <trkpt lat="39.290367" lon="-106.278783"><ele>2966.8</ele></trkpt>
    <trkpt lat="39.290930" lon="-106.279321"><ele>2968.5</ele></trkpt>
    <trkpt lat="39.291508" lon="-106.279831"><ele>2970.1</ele></trkpt>
    <trkpt lat="39.292068" lon="-106.280373"><ele>2971.8</ele></trkpt>
    <trkpt lat="39.292592" lon="-106.280973"><ele>2973.5</ele></trkpt>
    <trkpt lat="39.293086" lon="-106.281614"><ele>2975.2</ele></trkpt>
    <trkpt lat="39.293569" lon="-106.282269"><ele>2976.9</ele></trkpt>
    <trkpt lat="39.294016" lon="-106.282965"><ele>2978.6</ele></trkpt>
    <trkpt lat="39.294497" lon="-106.283622"><ele>2980.3</ele></trkpt>
    <trkpt lat="39.294984" lon="-106.284271"><ele>2982.0</ele></trkpt>
    <trkpt lat="39.295485" lon="-106.284904"><ele>2983.7</ele></trkpt>
    <trkpt lat="39.295998" lon="-106.285519"><ele>2985.4</ele></trkpt>
    <trkpt lat="39.296527" lon="-106.286111"><ele>2987.0</ele></trkpt>
    <trkpt lat="39.297057" lon="-106.286702"><ele>2988.6</ele></trkpt>
    <trkpt lat="39.297545" lon="-106.287350"><ele>2990.2</ele></trkpt>
    <trkpt lat="39.298061" lon="-106.287961"><ele>2991.8</ele></trkpt>
    <trkpt lat="39.298599" lon="-106.288540"><ele>2993.3</ele></trkpt>
    <trkpt lat="39.299138" lon="-106.289117"><ele>2994.8</ele></trkpt>
    <trkpt lat="39.299681" lon="-106.289688"><ele>2996.2</ele></trkpt>
    <trkpt lat="39.300238" lon="-106.290237"><ele>2997.7</ele></trkpt>
    <trkpt lat="39.300761" lon="-106.290838"><ele>2999.0</ele></trkpt>
    <trkpt lat="39.301304" lon="-106.291408"><ele>3000.4</ele></trkpt>
    <trkpt lat="39.301829" lon="-106.292007"><ele>3001.6</ele></trkpt>
    <trkpt lat="39.302317" lon="-106.292655"><ele>3002.8</ele></trkpt>
    <trkpt lat="39.302785" lon="-106.293328"><ele>3004.0</ele></trkpt>
    <trkpt lat="39.303275" lon="-106.293973"><ele>3005.1</ele></trkpt>
    <trkpt lat="39.303740" lon="-106.294651"><ele>3006.1</ele></trkpt>
    <trkpt lat="39.304227" lon="-106.295300"><ele>3007.1</ele></trkpt>
    <trkpt lat="39.304757" lon="-106.295891"><ele>3008.0</ele></trkpt>
    <trkpt lat="39.305287" lon="-106.296482"><ele>3008.9</ele></trkpt>
    <trkpt lat="39.305808" lon="-106.297086"><ele>3009.6</ele></trkpt>
    <trkpt lat="39.306328" lon="-106.297692"><ele>3010.3</ele></trkpt>
    <trkpt lat="39.306864" lon="-106.298273"><ele>3010.9</ele></trkpt>
    <trkpt lat="39.307422" lon="-106.298820"><ele>3011.4</ele></trkpt>
    <trkpt lat="39.307989" lon="-106.299350"><ele>3011.9</ele></trkpt>
    <trkpt lat="39.308568" lon="-106.299859"><ele>3012.2</ele></trkpt>
    <trkpt lat="39.309115" lon="-106.300423"><ele>3012.5</ele></trkpt>
    <trkpt lat="39.309634" lon="-106.301030"><ele>3012.7</ele></trkpt>
    <trkpt lat="39.310133" lon="-106.301665"><ele>3012.8</ele></trkpt>
    <trkpt lat="39.310653" lon="-106.302270"><ele>3012.8</ele></trkpt>
    <trkpt lat="39.311157" lon="-106.302898"><ele>3012.7</ele></trkpt>
    <trkpt lat="39.311668" lon="-106.303517"><ele>3012.4</ele></trkpt>
    <trkpt lat="39.312135" lon="-106.304191"><ele>3012.1</ele></trkpt>
    <trkpt lat="39.312560" lon="-106.304910"><ele>3011.7</ele></trkpt>
    <trkpt lat="39.312962" lon="-106.305650"><ele>3011.2</ele></trkpt>
    <trkpt lat="39.313382" lon="-106.306374"><ele>3010.6</ele></trkpt>
    <trkpt lat="39.313822" lon="-106.307078"><ele>3009.9</ele></trkpt>
    <trkpt lat="39.314279" lon="-106.307763"><ele>3009.1</ele></trkpt>
    <trkpt lat="39.314717" lon="-106.308469"><ele>3008.2</ele></trkpt>
    <trkpt lat="39.315156" lon="-106.309174"><ele>3007.1</ele></trkpt>
    <trkpt lat="39.315592" lon="-106.309882"><ele>3006.0</ele></trkpt>
    <trkpt lat="39.316025" lon="-106.310593"><ele>3004.7</ele></trkpt>
    <trkpt lat="39.316419" lon="-106.311340"><ele>3003.3</ele></trkpt>
    <trkpt lat="39.316854" lon="-106.312050"><ele>3001.8</ele></trkpt>
    <trkpt lat="39.317258" lon="-106.312788"><ele>3000.2</ele></trkpt>
    <trkpt lat="39.317710" lon="-106.313479"><ele>2998.5</ele></trkpt>
    <trkpt lat="39.318203" lon="-106.314122"><ele>2996.6</ele></trkpt>
    <trkpt lat="39.318650" lon="-106.314818"><ele>2994.7</ele></trkpt>
    <trkpt lat="39.319094" lon="-106.315517"><ele>2992.6</ele></trkpt>
    <trkpt lat="39.319568" lon="-106.316183"><ele>2990.4</ele></trkpt>
    <trkpt lat="39.320084" lon="-106.316795"><ele>2988.1</ele></trkpt>
    <trkpt lat="39.320595" lon="-106.317414"><ele>2985.7</ele></trkpt>
    <trkpt lat="39.321085" lon="-106.318059"><ele>2983.2</ele></trkpt>
    <trkpt lat="39.321549" lon="-106.318737"><ele>2980.5</ele></trkpt>
    <trkpt lat="39.322053" lon="-106.319365"><ele>2977.7</ele></trkpt>
    <trkpt lat="39.322531" lon="-106.320026"><ele>2974.8</ele></trkpt>
    <trkpt lat="39.323015" lon="-106.320679"><ele>2971.8</ele></trkpt>
    <trkpt lat="39.323466" lon="-106.321371"><ele>2968.7</ele></trkpt>
    <trkpt lat="39.323919" lon="-106.322061"><ele>2965.5</ele></trkpt>
    <trkpt lat="39.324413" lon="-106.322702"><ele>2962.1</ele></trkpt>
    <trkpt lat="39.324874" lon="-106.323384"><ele>2958.6</ele></trkpt>
    <trkpt lat="39.325363" lon="-106.324031"><ele>2955.1</ele></trkpt>
    <trkpt lat="39.325852" lon="-106.324678"><ele>2951.4</ele></trkpt>
    <trkpt lat="39.326375" lon="-106.325280"><ele>2947.6</ele></trkpt>
    <trkpt lat="39.326913" lon="-106.325858"><ele>2943.6</ele></trkpt>
    <trkpt lat="39.327429" lon="-106.326470"><ele>2939.6</ele></trkpt>
    <trkpt lat="39.327977" lon="-106.327033"><ele>2935.5</ele></trkpt>
    <trkpt lat="39.328523" lon="-106.327599"><ele>2931.3</ele></trkpt>
    <trkpt lat="39.329029" lon="-106.328224"><ele>2926.9</ele></trkpt>
    <trkpt lat="39.329489" lon="-106.328907"><ele>2922.5</ele></trkpt>
    <trkpt lat="39.329948" lon="-106.329590"><ele>2917.9</ele></trkpt>
    <trkpt lat="39.330400" lon="-106.330281"><ele>2913.3</ele></trkpt>
    <trkpt lat="39.330833" lon="-106.330992"><ele>2908.5</ele></trkpt>
    <trkpt lat="39.331228" lon="-106.331739"><ele>2903.7</ele></trkpt>
    <trkpt lat="39.331606" lon="-106.332501"><ele>2898.8</ele></trkpt>
    <trkpt lat="39.331962" lon="-106.333280"><ele>2893.8</ele></trkpt>
    <trkpt lat="39.332354" lon="-106.334030"><ele>2888.6</ele></trkpt>
    <trkpt lat="39.332691" lon="-106.334823"><ele>2883.4</ele></trkpt>
    <trkpt lat="39.333054" lon="-106.335597"><ele>2878.2</ele></trkpt>
    <trkpt lat="39.333451" lon="-106.336342"><ele>2872.8</ele></trkpt>
    <trkpt lat="39.333807" lon="-106.337121"><ele>2867.3</ele></trkpt>
    <trkpt lat="39.334207" lon="-106.337864"><ele>2861.8</ele></trkpt>
    <trkpt lat="39.334627" lon="-106.338588"><ele>2856.2</ele></trkpt>
    <trkpt lat="39.335085" lon="-106.339272"><ele>2850.6</ele></trkpt>
    <trkpt lat="39.335522" lon="-106.339980"><ele>2844.8</ele></trkpt>
    <trkpt lat="39.335944" lon="-106.340702"><ele>2839.0</ele></trkpt>
    <trkpt lat="39.336355" lon="-106.341435"><ele>2833.1</ele></trkpt>
    <trkpt lat="39.336812" lon="-106.342120"><ele>2827.2</ele></trkpt>
    <trkpt lat="39.337277" lon="-106.342796"><ele>2821.2</ele></trkpt>
    <trkpt lat="39.337728" lon="-106.343489"><ele>2815.2</ele></trkpt>
    <trkpt lat="39.338169" lon="-106.344191"><ele>2809.1</ele></trkpt>
    <trkpt lat="39.338587" lon="-106.344917"><ele>2802.9</ele></trkpt>
    <trkpt lat="39.338956" lon="-106.345686"><ele>2796.7</ele></trkpt>
    <trkpt lat="39.339280" lon="-106.346489"><ele>2790.5</ele></trkpt>
    <trkpt lat="39.339639" lon="-106.347266"><ele>2784.2</ele></trkpt>
    <trkpt lat="39.339972" lon="-106.348062"><ele>2777.9</ele></trkpt>
    <trkpt lat="39.340351" lon="-106.348823"><ele>2771.6</ele></trkpt>
    <trkpt lat="39.340701" lon="-106.349607"><ele>2765.2</ele></trkpt>
    <trkpt lat="39.341023" lon="-106.350411"><ele>2758.8</ele></trkpt>
    <trkpt lat="39.341344" lon="-106.351215"><ele>2752.4</ele></trkpt>
    <trkpt lat="39.341628" lon="-106.352042"><ele>2745.9</ele></trkpt>
    <trkpt lat="39.341895" lon="-106.352879"><ele>2739.5</ele></trkpt>
    <trkpt lat="39.342212" lon="-106.353686"><ele>2733.0</ele></trkpt>
    <trkpt lat="39.342570" lon="-106.354464"><ele>2726.5</ele></trkpt>
    <trkpt lat="39.342959" lon="-106.355216"><ele>2720.1</ele></trkpt>
    <trkpt lat="39.343359" lon="-106.355959"><ele>2713.6</ele></trkpt>
    <trkpt lat="39.343799" lon="-106.356663"><ele>2707.1</ele></trkpt>
    <trkpt lat="39.344279" lon="-106.357322"><ele>2700.6</ele></trkpt>
    <trkpt lat="39.344762" lon="-106.357977"><ele>2694.2</ele></trkpt>
    <trkpt lat="39.345263" lon="-106.358610"><ele>2687.7</ele></trkpt>
    <trkpt lat="39.345720" lon="-106.359295"><ele>2681.3</ele></trkpt>
    <trkpt lat="39.346197" lon="-106.359957"><ele>2674.9</ele></trkpt>
    <trkpt lat="39.346668" lon="-106.360627"><ele>2668.5</ele></trkpt>
    <trkpt lat="39.347160" lon="-106.361271"><ele>2662.2</ele></trkpt>
    <trkpt lat="39.347663" lon="-106.361900"><ele>2655.8</ele></trkpt>
    <trkpt lat="39.348145" lon="-106.362557"><ele>2649.5</ele></trkpt>
    <trkpt lat="39.348582" lon="-106.363264"><ele>2643.3</ele></trkpt>
    <trkpt lat="39.349058" lon="-106.363927"><ele>2637.1</ele></trkpt>
    <trkpt lat="39.349497" lon="-106.364633"><ele>2630.9</ele></trkpt>
    <trkpt lat="39.349930" lon="-106.365344"><ele>2624.8</ele></trkpt>
    <trkpt lat="39.350346" lon="-106.366072"><ele>2618.8</ele></trkpt>
    <trkpt lat="39.350738" lon="-106.366822"><ele>2612.8</ele></trkpt>
    <trkpt lat="39.351153" lon="-106.367551"><ele>2606.8</ele></trkpt>
    <trkpt lat="39.351613" lon="-106.368234"><ele>2600.9</ele></trkpt>
    <trkpt lat="39.352047" lon="-106.368943"><ele>2595.1</ele></trkpt>
    <trkpt lat="39.352495" lon="-106.369640"><ele>2589.4</ele></trkpt>
    <trkpt lat="39.352920" lon="-106.370358"><ele>2583.7</ele></trkpt>
    <trkpt lat="39.353349" lon="-106.371074"><ele>2578.2</ele></trkpt>
    <trkpt lat="39.353766" lon="-106.371801"><ele>2572.7</ele></trkpt>
    <trkpt lat="39.354145" lon="-106.372562"><ele>2567.2</ele></trkpt>
    <trkpt lat="39.354486" lon="-106.373353"><ele>2561.9</ele></trkpt>
    <trkpt lat="39.354792" lon="-106.374167"><ele>2556.7</ele></trkpt>
    <trkpt lat="39.355140" lon="-106.374953"><ele>2551.5</ele></trkpt>
    <trkpt lat="39.355485" lon="-106.375740"><ele>2546.4</ele></trkpt>
    <trkpt lat="39.355797" lon="-106.376550"><ele>2541.5</ele></trkpt>
    <trkpt lat="39.356152" lon="-106.377331"><ele>2536.6</ele></trkpt>
    <trkpt lat="39.356556" lon="-106.378070"><ele>2531.9</ele></trkpt>
    <trkpt lat="39.356953" lon="-106.378815"><ele>2527.3</ele></trkpt>
    <trkpt lat="39.357310" lon="-106.379595"><ele>2522.7</ele></trkpt>
    <trkpt lat="39.357630" lon="-106.380400"><ele>2518.3</ele></trkpt>
    <trkpt lat="39.357901" lon="-106.381234"><ele>2514.0</ele></trkpt>
    <trkpt lat="39.358151" lon="-106.382080"><ele>2509.8</ele></trkpt>
    <trkpt lat="39.358349" lon="-106.382948"><ele>2505.8</ele></trkpt>
    <trkpt lat="39.358513" lon="-106.383828"><ele>2501.9</ele></trkpt>
    <trkpt lat="39.358645" lon="-106.384718"><ele>2498.0</ele></trkpt>
    <trkpt lat="39.358782" lon="-106.385605"><ele>2494.4</ele></trkpt>
    <trkpt lat="39.358965" lon="-106.386479"><ele>2490.8</ele></trkpt>
    <trkpt lat="39.359175" lon="-106.387343"><ele>2487.4</ele></trkpt>
    <trkpt lat="39.359372" lon="-106.388212"><ele>2484.1</ele></trkpt>
    <trkpt lat="39.359555" lon="-106.389085"><ele>2481.0</ele></trkpt>
    <trkpt lat="39.359739" lon="-106.389959"><ele>2478.0</ele></trkpt>
    <trkpt lat="39.359906" lon="-106.390838"><ele>2475.1</ele></trkpt>
    <trkpt lat="39.360050" lon="-106.391724"><ele>2472.4</ele></trkpt>
    <trkpt lat="39.360137" lon="-106.392623"><ele>2469.8</ele></trkpt>
    <trkpt lat="39.360194" lon="-106.393525"><ele>2467.4</ele></trkpt>
    <trkpt lat="39.360306" lon="-106.394419"><ele>2465.1</ele></trkpt>
    <trkpt lat="39.360370" lon="-106.395320"><ele>2462.9</ele></trkpt>
    <trkpt lat="39.360431" lon="-106.396222"><ele>2460.9</ele></trkpt>
    <trkpt lat="39.360505" lon="-106.397122"><ele>2459.1</ele></trkpt>
    <trkpt lat="39.360623" lon="-106.398015"><ele>2457.4</ele></trkpt>
    <trkpt lat="39.360703" lon="-106.398914"><ele>2455.9</ele></trkpt>
    <trkpt lat="39.360751" lon="-106.399817"><ele>2454.5</ele></trkpt>
    <trkpt lat="39.360766" lon="-106.400723"><ele>2453.3</ele></trkpt>
    <trkpt lat="39.360765" lon="-106.401628"><ele>2452.2</ele></trkpt>
    <trkpt lat="39.360755" lon="-106.402533"><ele>2451.3</ele></trkpt>
    <trkpt lat="39.360800" lon="-106.403437"><ele>2450.5</ele></trkpt>
    <trkpt lat="39.360887" lon="-106.404335"><ele>2449.9</ele></trkpt>
    <trkpt lat="39.361017" lon="-106.405225"><ele>2449.4</ele></trkpt>
    <trkpt lat="39.361086" lon="-106.406126"><ele>2449.1</ele></trkpt>
    <trkpt lat="39.361094" lon="-106.407031"><ele>2449.0</ele></trkpt>
    <trkpt lat="39.361126" lon="-106.407935"><ele>2449.0</ele></trkpt>
    <trkpt lat="39.361205" lon="-106.408835"><ele>2449.2</ele></trkpt>
    <trkpt lat="39.361279" lon="-106.409735"><ele>2449.5</ele></trkpt>
    <trkpt lat="39.361361" lon="-106.410634"><ele>2450.0</ele></trkpt>
    <trkpt lat="39.361379" lon="-106.411539"><ele>2450.6</ele></trkpt>
    <trkpt lat="39.361381" lon="-106.412445"><ele>2451.4</ele></trkpt>
    <trkpt lat="39.361435" lon="-106.413347"><ele>2452.4</ele></trkpt>
    <trkpt lat="39.361527" lon="-106.414245"><ele>2453.5</ele></trkpt>
    <trkpt lat="39.361662" lon="-106.415133"><ele>2454.8</ele></trkpt>
    <trkpt lat="39.361853" lon="-106.416004"><ele>2456.2</ele></trkpt>
    <trkpt lat="39.362011" lon="-106.416886"><ele>2457.7</ele></trkpt>
    <trkpt lat="39.362120" lon="-106.417781"><ele>2459.4</ele></trkpt>
    <trkpt lat="39.362183" lon="-106.418682"><ele>2461.3</ele></trkpt>
    <trkpt lat="39.362247" lon="-106.419584"><ele>2463.3</ele></trkpt>
    <trkpt lat="39.362333" lon="-106.420483"><ele>2465.5</ele></trkpt>
    <trkpt lat="39.362471" lon="-106.421370"><ele>2467.8</ele></trkpt>
    <trkpt lat="39.362636" lon="-106.422250"><ele>2470.2</ele></trkpt>
    <trkpt lat="39.362816" lon="-106.423125"><ele>2472.8</ele></trkpt>
    <trkpt lat="39.363028" lon="-106.423988"><ele>2475.5</ele></trkpt>
    <trkpt lat="39.363232" lon="-106.424854"><ele>2478.4</ele></trkpt>
    <trkpt lat="39.363442" lon="-106.425718"><ele>2481.4</ele></trkpt>
    <trkpt lat="39.363594" lon="-106.426601"><ele>2484.6</ele></trkpt>
    <trkpt lat="39.363780" lon="-106.427475"><ele>2487.8</ele></trkpt>
    <trkpt lat="39.363931" lon="-106.428359"><ele>2491.2</ele></trkpt>
    <trkpt lat="39.364132" lon="-106.429226"><ele>2494.8</ele></trkpt>
    <trkpt lat="39.364350" lon="-106.430086"><ele>2498.4</ele></trkpt>
    <trkpt lat="39.364543" lon="-106.430957"><ele>2502.2</ele></trkpt>
    <trkpt lat="39.364689" lon="-106.431842"><ele>2506.1</ele></trkpt>
    <trkpt lat="39.364803" lon="-106.432735"><ele>2510.1</ele></trkpt>
    <trkpt lat="39.364934" lon="-106.433625"><ele>2514.3</ele></trkpt>
    <trkpt lat="39.365088" lon="-106.434508"><ele>2518.5</ele></trkpt>
    <trkpt lat="39.365193" lon="-106.435403"><ele>2522.9</ele></trkpt>
    <trkpt lat="39.365243" lon="-106.436306"><ele>2527.4</ele></trkpt>
    <trkpt lat="39.365295" lon="-106.437209"><ele>2532.0</ele></trkpt>
    <trkpt lat="39.365357" lon="-106.438111"><ele>2536.6</ele></trkpt>
    <trkpt lat="39.365404" lon="-106.439015"><ele>2541.4</ele></trkpt>
    <trkpt lat="39.365416" lon="-106.439920"><ele>2546.3</ele></trkpt>
    <trkpt lat="39.365440" lon="-106.440825"><ele>2551.3</ele></trkpt>
    <trkpt lat="39.365401" lon="-106.441729"><ele>2556.4</ele></trkpt>
    <trkpt lat="39.365337" lon="-106.442630"><ele>2561.5</ele></trkpt>
    <trkpt lat="39.365268" lon="-106.443531"><ele>2566.8</ele></trkpt>
    <trkpt lat="39.365256" lon="-106.444437"><ele>2572.1</ele></trkpt>
    <trkpt lat="39.365261" lon="-106.445342"><ele>2577.5</ele></trkpt>
    <trkpt lat="39.365315" lon="-106.446245"><ele>2583.0</ele></trkpt>
    <trkpt lat="39.365365" lon="-106.447148"><ele>2588.5</ele></trkpt>
    <trkpt lat="39.365382" lon="-106.448053"><ele>2594.1</ele></trkpt>
    <trkpt lat="39.365366" lon="-106.448958"><ele>2599.8</ele></trkpt>
    <trkpt lat="39.365408" lon="-106.449862"><ele>2605.6</ele></trkpt>
    <trkpt lat="39.365476" lon="-106.450763"><ele>2611.4</ele></trkpt>
    <trkpt lat="39.365520" lon="-106.451667"><ele>2617.2</ele></trkpt>
    <trkpt lat="39.365503" lon="-106.452572"><ele>2623.1</ele></trkpt>
    <trkpt lat="39.365486" lon="-106.453477"><ele>2629.1</ele></trkpt>
    <trkpt lat="39.365492" lon="-106.454383"><ele>2635.1</ele></trkpt>
    <trkpt lat="39.365487" lon="-106.455288"><ele>2641.1</ele></trkpt>
    <trkpt lat="39.365452" lon="-106.456192"><ele>2647.2</ele></trkpt>
    <trkpt lat="39.365438" lon="-106.457098"><ele>2653.3</ele></trkpt>
    <trkpt lat="39.365478" lon="-106.458002"><ele>2659.4</ele></trkpt>
    <trkpt lat="39.365485" lon="-106.458907"><ele>2665.6</ele></trkpt>
    <trkpt lat="39.365432" lon="-106.459810"><ele>2671.8</ele></trkpt>
    <trkpt lat="39.365360" lon="-106.460710"><ele>2678.0</ele></trkpt>
    <trkpt lat="39.365279" lon="-106.461610"><ele>2684.2</ele></trkpt>
    <trkpt lat="39.365221" lon="-106.462512"><ele>2690.5</ele></trkpt>
    <trkpt lat="39.365126" lon="-106.463409"><ele>2696.7</ele></trkpt>
    <trkpt lat="39.365068" lon="-106.464311"><ele>2703.0</ele></trkpt>
    <trkpt lat="39.365041" lon="-106.465216"><ele>2709.2</ele></trkpt>
    <trkpt lat="39.365016" lon="-106.466121"><ele>2715.5</ele></trkpt>
    <trkpt lat="39.364955" lon="-106.467023"><ele>2721.7</ele></trkpt>
    <trkpt lat="39.364953" lon="-106.467928"><ele>2727.9</ele></trkpt>
    <trkpt lat="39.364929" lon="-106.468833"><ele>2734.1</ele></trkpt>
    <trkpt lat="39.364945" lon="-106.469738"><ele>2740.3</ele></trkpt>
    <trkpt lat="39.364929" lon="-106.470644"><ele>2746.5</ele></trkpt>
    <trkpt lat="39.364879" lon="-106.471547"><ele>2752.7</ele></trkpt>
    <trkpt lat="39.364863" lon="-106.472452"><ele>2758.8</ele></trkpt>
    <trkpt lat="39.364822" lon="-106.473356"><ele>2764.9</ele></trkpt>
    <trkpt lat="39.364839" lon="-106.474261"><ele>2771.0</ele></trkpt>
    <trkpt lat="39.364857" lon="-106.475166"><ele>2777.0</ele></trkpt>
    <trkpt lat="39.364837" lon="-106.476071"><ele>2783.0</ele></trkpt>
    <trkpt lat="39.364783" lon="-106.476974"><ele>2789.0</ele></trkpt>
    <trkpt lat="39.364720" lon="-106.477875"><ele>2794.9</ele></trkpt>
    <trkpt lat="39.364679" lon="-106.478779"><ele>2800.7</ele></trkpt>
    <trkpt lat="39.364697" lon="-106.479685"><ele>2806.5</ele></trkpt>
    <trkpt lat="39.364671" lon="-106.480589"><ele>2812.3</ele></trkpt>
    <trkpt lat="39.364633" lon="-106.481493"><ele>2818.0</ele></trkpt>
    <trkpt lat="39.364561" lon="-106.482394"><ele>2823.6</ele></trkpt>
    <trkpt lat="39.364550" lon="-106.483299"><ele>2829.1</ele></trkpt>
    <trkpt lat="39.364496" lon="-106.484202"><ele>2834.6</ele></trkpt>
    <trkpt lat="39.364387" lon="-106.485096"><ele>2840.1</ele></trkpt>
    <trkpt lat="39.364226" lon="-106.485977"><ele>2845.4</ele></trkpt>
    <trkpt lat="39.364053" lon="-106.486855"><ele>2850.7</ele></trkpt>
    <trkpt lat="39.363931" lon="-106.487746"><ele>2855.9</ele></trkpt>
    <trkpt lat="39.363859" lon="-106.488647"><ele>2861.0</ele></trkpt>
    <trkpt lat="39.363818" lon="-106.489551"><ele>2866.1</ele></trkpt>
    <trkpt lat="39.363841" lon="-106.490456"><ele>2871.1</ele></trkpt>
    <trkpt lat="39.363921" lon="-106.491355"><ele>2875.9</ele></trkpt>
    <trkpt lat="39.363981" lon="-106.492257"><ele>2880.7</ele></trkpt>
    <trkpt lat="39.364004" lon="-106.493162"><ele>2885.4</ele></trkpt>
    <trkpt lat="39.364084" lon="-106.494062"><ele>2890.0</ele></trkpt>
    <trkpt lat="39.364196" lon="-106.494955"><ele>2894.5</ele></trkpt>
    <trkpt lat="39.364252" lon="-106.495858"><ele>2899.0</ele></trkpt>
    <trkpt lat="39.364331" lon="-106.496758"><ele>2903.3</ele></trkpt>
    <trkpt lat="39.364397" lon="-106.497659"><ele>2907.5</ele></trkpt>
    <trkpt lat="39.364449" lon="-106.498562"><ele>2911.6</ele></trkpt>
    <trkpt lat="39.364482" lon="-106.499466"><ele>2915.6</ele></trkpt>
    <trkpt lat="39.364476" lon="-106.500372"><ele>2919.6</ele></trkpt>
    <trkpt lat="39.364410" lon="-106.501273"><ele>2923.4</ele></trkpt>
    <trkpt lat="39.364318" lon="-106.502171"><ele>2927.1</ele></trkpt>
    <trkpt lat="39.364210" lon="-106.503065"><ele>2930.7</ele></trkpt>
    <trkpt lat="39.364162" lon="-106.503969"><ele>2934.2</ele></trkpt>
    <trkpt lat="39.364069" lon="-106.504866"><ele>2937.6</ele></trkpt>
    <trkpt lat="39.364037" lon="-106.505770"><ele>2940.9</ele></trkpt>
    <trkpt lat="39.363970" lon="-106.506672"><ele>2944.0</ele></trkpt>
    <trkpt lat="39.363888" lon="-106.507571"><ele>2947.1</ele></trkpt>
    <trkpt lat="39.363848" lon="-106.508475"><ele>2950.0</ele></trkpt>
    <trkpt lat="39.363852" lon="-106.509380"><ele>2952.9</ele></trkpt>
    <trkpt lat="39.363850" lon="-106.510286"><ele>2955.6</ele></trkpt>
    <trkpt lat="39.363794" lon="-106.511188"><ele>2958.2</ele></trkpt>
    <trkpt lat="39.363737" lon="-106.512090"><ele>2960.7</ele></trkpt>
    <trkpt lat="39.363667" lon="-106.512991"><ele>2963.1</ele></trkpt>
    <trkpt lat="39.363652" lon="-106.513896"><ele>2965.4</ele></trkpt>
    <trkpt lat="39.363601" lon="-106.514799"><ele>2967.5</ele></trkpt>
    <trkpt lat="39.363535" lon="-106.515701"><ele>2969.6</ele></trkpt>
    <trkpt lat="39.363523" lon="-106.516606"><ele>2971.5</ele></trkpt>
    <trkpt lat="39.363454" lon="-106.517507"><ele>2973.4</ele></trkpt>
    <trkpt lat="39.363376" lon="-106.518407"><ele>2975.1</ele></trkpt>
    <trkpt lat="39.363340" lon="-106.519311"><ele>2976.7</ele></trkpt>
    <trkpt lat="39.363341" lon="-106.520217"><ele>2978.2</ele></trkpt>
    <trkpt lat="39.363287" lon="-106.521119"><ele>2979.6</ele></trkpt>
    <trkpt lat="39.363177" lon="-106.522013"><ele>2980.9</ele></trkpt>
    <trkpt lat="39.363016" lon="-106.522894"><ele>2982.1</ele></trkpt>
    <trkpt lat="39.362909" lon="-106.523789"><ele>2983.2</ele></trkpt>
    <trkpt lat="39.362775" lon="-106.524678"><ele>2984.2</ele></trkpt>
    <trkpt lat="39.362674" lon="-106.525574"><ele>2985.0</ele></trkpt>
    <trkpt lat="39.362627" lon="-106.526477"><ele>2985.8</ele></trkpt>
    <trkpt lat="39.362561" lon="-106.527379"><ele>2986.5</ele></trkpt>
    <trkpt lat="39.362470" lon="-106.528276"><ele>2987.1</ele></trkpt>
    <trkpt lat="39.362440" lon="-106.529181"><ele>2987.5</ele></trkpt>
    <trkpt lat="39.362426" lon="-106.530086"><ele>2987.9</ele></trkpt>
    <trkpt lat="39.362386" lon="-106.530990"><ele>2988.2</ele></trkpt>
    <trkpt lat="39.362376" lon="-106.531895"><ele>2988.4</ele></trkpt>
    <trkpt lat="39.362345" lon="-106.532800"><ele>2988.5</ele></trkpt>
    <trkpt lat="39.362289" lon="-106.533702"><ele>2988.6</ele></trkpt>
    <trkpt lat="39.362174" lon="-106.534595"><ele>2988.5</ele></trkpt>
    <trkpt lat="39.362093" lon="-106.535495"><ele>2988.4</ele></trkpt>
    <trkpt lat="39.362068" lon="-106.536399"><ele>2988.1</ele></trkpt>
    <trkpt lat="39.362062" lon="-106.537305"><ele>2987.8</ele></trkpt>
    <trkpt lat="39.362114" lon="-106.538208"><ele>2987.5</ele></trkpt>
    <trkpt lat="39.362110" lon="-106.539113"><ele>2987.0</ele></trkpt>
    <trkpt lat="39.362074" lon="-106.540017"><ele>2986.5</ele></trkpt>
    <trkpt lat="39.362039" lon="-106.540921"><ele>2985.9</ele></trkpt>
    <trkpt lat="39.362063" lon="-106.541826"><ele>2985.2</ele></trkpt>
    <trkpt lat="39.362148" lon="-106.542725"><ele>2984.5</ele></trkpt>
    <trkpt lat="39.362221" lon="-106.543626"><ele>2983.7</ele></trkpt>
    <trkpt lat="39.362265" lon="-106.544529"><ele>2982.9</ele></trkpt>
    <trkpt lat="39.362303" lon="-106.545433"><ele>2982.0</ele></trkpt>
    <trkpt lat="39.362343" lon="-106.546337"><ele>2981.1</ele></trkpt>
    <trkpt lat="39.362439" lon="-106.547234"><ele>2980.1</ele></trkpt>
    <trkpt lat="39.362498" lon="-106.548136"><ele>2979.0</ele></trkpt>
    <trkpt lat="39.362598" lon="-106.549032"><ele>2977.9</ele></trkpt>
    <trkpt lat="39.362729" lon="-106.549921"><ele>2976.8</ele></trkpt>
    <trkpt lat="39.362903" lon="-106.550798"><ele>2975.7</ele></trkpt>
    <trkpt lat="39.363113" lon="-106.551662"><ele>2974.5</ele></trkpt>
    <trkpt lat="39.363338" lon="-106.552520"><ele>2973.2</ele></trkpt>
    <trkpt lat="39.363544" lon="-106.553385"><ele>2972.0</ele></trkpt>
    <trkpt lat="39.363731" lon="-106.554257"><ele>2970.7</ele></trkpt>
    <trkpt lat="39.363904" lon="-106.555135"><ele>2969.4</ele></trkpt>
    <trkpt lat="39.364113" lon="-106.555999"><ele>2968.1</ele></trkpt>
    <trkpt lat="39.364273" lon="-106.556880"><ele>2966.8</ele></trkpt>
    <trkpt lat="39.364398" lon="-106.557771"><ele>2965.4</ele></trkpt>
    <trkpt lat="39.364557" lon="-106.558653"><ele>2964.1</ele></trkpt>
    <trkpt lat="39.364687" lon="-106.559543"><ele>2962.7</ele></trkpt>
    <trkpt lat="39.364765" lon="-106.560442"><ele>2961.4</ele></trkpt>
    <trkpt lat="39.364787" lon="-106.561347"><ele>2960.0</ele></trkpt>
    <trkpt lat="39.364817" lon="-106.562252"><ele>2958.7</ele></trkpt>
    <trkpt lat="39.364828" lon="-106.563157"><ele>2957.4</ele></trkpt>
    <trkpt lat="39.364902" lon="-106.564058"><ele>2956.0</ele></trkpt>
    <trkpt lat="39.365025" lon="-106.564949"><ele>2954.7</ele></trkpt>
    <trkpt lat="39.365210" lon="-106.565822"><ele>2953.4</ele></trkpt>
    <trkpt lat="39.365369" lon="-106.566704"><ele>2952.2</ele></trkpt>
    <trkpt lat="39.365478" lon="-106.567598"><ele>2950.9</ele></trkpt>
    <trkpt lat="39.365539" lon="-106.568500"><ele>2949.7</ele></trkpt>
    <trkpt lat="39.365601" lon="-106.569402"><ele>2948.6</ele></trkpt>
    <trkpt lat="39.365692" lon="-106.570300"><ele>2947.4</ele></trkpt>
    <trkpt lat="39.365778" lon="-106.571198"><ele>2946.3</ele></trkpt>
    <trkpt lat="39.365832" lon="-106.572101"><ele>2945.3</ele></trkpt>
    <trkpt lat="39.365878" lon="-106.573005"><ele>2944.3</ele></trkpt>
    <trkpt lat="39.365940" lon="-106.573906"><ele>2943.3</ele></trkpt>
    <trkpt lat="39.366027" lon="-106.574805"><ele>2942.4</ele></trkpt>
    <trkpt lat="39.366145" lon="-106.575697"><ele>2941.5</ele></trkpt>
    <trkpt lat="39.366309" lon="-106.576578"><ele>2940.7</ele></trkpt>
    <trkpt lat="39.366494" lon="-106.577451"><ele>2940.0</ele></trkpt>
    <trkpt lat="39.366634" lon="-106.578338"><ele>2939.3</ele></trkpt>
    <trkpt lat="39.366817" lon="-106.579212"><ele>2938.7</ele></trkpt>
    <trkpt lat="39.366976" lon="-106.580094"><ele>2938.2</ele></trkpt>
    <trkpt lat="39.367146" lon="-106.580972"><ele>2937.8</ele></trkpt>
    <trkpt lat="39.367301" lon="-106.581855"><ele>2937.4</ele></trkpt>
    <trkpt lat="39.367486" lon="-106.582728"><ele>2937.1</ele></trkpt>
    <trkpt lat="39.367636" lon="-106.583613"><ele>2936.9</ele></trkpt>
    <trkpt lat="39.367756" lon="-106.584505"><ele>2936.7</ele></trkpt>
    <trkpt lat="39.367845" lon="-106.585403"><ele>2936.7</ele></trkpt>
    <trkpt lat="39.367892" lon="-106.586306"><ele>2936.8</ele></trkpt>
    <trkpt lat="39.367988" lon="-106.587203"><ele>2936.9</ele></trkpt>
    <trkpt lat="39.368096" lon="-106.588098"><ele>2937.1</ele></trkpt>
    <trkpt lat="39.368182" lon="-106.588997"><ele>2937.5</ele></trkpt>
    <trkpt lat="39.368257" lon="-106.589897"><ele>2937.9</ele></trkpt>
    <trkpt lat="39.368393" lon="-106.590785"><ele>2938.4</ele></trkpt>
    <trkpt lat="39.368532" lon="-106.591672"><ele>2939.1</ele></trkpt>
    <trkpt lat="39.368638" lon="-106.592567"><ele>2939.8</ele></trkpt>
    <trkpt lat="39.368783" lon="-106.593453"><ele>2940.7</ele></trkpt>
    <trkpt lat="39.368948" lon="-106.594333"><ele>2941.7</ele></trkpt>
    <trkpt lat="39.369172" lon="-106.595191"><ele>2942.7</ele></trkpt>
    <trkpt lat="39.369350" lon="-106.596067"><ele>2943.9</ele></trkpt>
    <trkpt lat="39.369525" lon="-106.596944"><ele>2945.2</ele></trkpt>
    <trkpt lat="39.369739" lon="-106.597806"><ele>2946.7</ele></trkpt>
    <trkpt lat="39.369993" lon="-106.598649"><ele>2948.2</ele></trkpt>
    <trkpt lat="39.370297" lon="-106.599465"><ele>2949.9</ele></trkpt>
    <trkpt lat="39.370547" lon="-106.600311"><ele>2951.7</ele></trkpt>
    <trkpt lat="39.370773" lon="-106.601168"><ele>2953.6</ele></trkpt>
    <trkpt lat="39.370954" lon="-106.602042"><ele>2955.7</ele></trkpt>
    <trkpt lat="39.371097" lon="-106.602929"><ele>2957.8</ele></trkpt>
    <trkpt lat="39.371298" lon="-106.603796"><ele>2960.1</ele></trkpt>
    <trkpt lat="39.371509" lon="-106.604660"><ele>2962.6</ele></trkpt>
    <trkpt lat="39.371771" lon="-106.605499"><ele>2965.1</ele></trkpt>
    <trkpt lat="39.372018" lon="-106.606347"><ele>2967.8</ele></trkpt>
    <trkpt lat="39.372307" lon="-106.607171"><ele>2970.6</ele></trkpt>
    <trkpt lat="39.372591" lon="-106.607999"><ele>2973.6</ele></trkpt>
    <trkpt lat="39.372847" lon="-106.608842"><ele>2976.6</ele></trkpt>
    <trkpt lat="39.373135" lon="-106.609667"><ele>2979.9</ele></trkpt>
    <trkpt lat="39.373473" lon="-106.610460"><ele>2983.2</ele></trkpt>
    <trkpt lat="39.373766" lon="-106.611282"><ele>2986.7</ele></trkpt>
    <trkpt lat="39.374070" lon="-106.612098"><ele>2990.3</ele></trkpt>
    <trkpt lat="39.374388" lon="-106.612905"><ele>2994.0</ele></trkpt>
    <trkpt lat="39.374672" lon="-106.613732"><ele>2997.9</ele></trkpt>
    <trkpt lat="39.374941" lon="-106.614568"><ele>3001.9</ele></trkpt>
    <trkpt lat="39.375168" lon="-106.615425"><ele>3006.1</ele></trkpt>
    <trkpt lat="39.375358" lon="-106.616297"><ele>3010.3</ele></trkpt>
    <trkpt lat="39.375518" lon="-106.617178"><ele>3014.7</ele></trkpt>
    <trkpt lat="39.375689" lon="-106.618056"><ele>3019.3</ele></trkpt>
    <trkpt lat="39.375879" lon="-106.618928"><ele>3023.9</ele></trkpt>
    <trkpt lat="39.376031" lon="-106.619812"><ele>3028.7</ele></trkpt>
    <trkpt lat="39.376122" lon="-106.620710"><ele>3033.7</ele></trkpt>
    <trkpt lat="39.376190" lon="-106.621611"><ele>3038.7</ele></trkpt>
    <trkpt lat="39.376280" lon="-106.622509"><ele>3043.9</ele></trkpt>
    <trkpt lat="39.376329" lon="-106.623413"><ele>3049.2</ele></trkpt>
    <trkpt lat="39.376354" lon="-106.624318"><ele>3054.7</ele></trkpt>
    <trkpt lat="39.376340" lon="-106.625223"><ele>3060.2</ele></trkpt>
    <trkpt lat="39.376362" lon="-106.626128"><ele>3065.9</ele></trkpt>
    <trkpt lat="39.376389" lon="-106.627033"><ele>3071.7</ele></trkpt>
    <trkpt lat="39.376361" lon="-106.627938"><ele>3077.6</ele></trkpt>
    <trkpt lat="39.376280" lon="-106.628837"><ele>3083.7</ele></trkpt>
    <trkpt lat="39.376186" lon="-106.629735"><ele>3089.8</ele></trkpt>
    <trkpt lat="39.376096" lon="-106.630633"><ele>3096.1</ele></trkpt>
    <trkpt lat="39.376023" lon="-106.631533"><ele>3102.5</ele></trkpt>
    <trkpt lat="39.375897" lon="-106.632424"><ele>3108.9</ele></trkpt>
    <trkpt lat="39.375728" lon="-106.633303"><ele>3115.5</ele></trkpt>
    <trkpt lat="39.375582" lon="-106.634188"><ele>3122.2</ele></trkpt>
    <trkpt lat="39.375423" lon="-106.635070"><ele>3129.0</ele></trkpt>
    <trkpt lat="39.375236" lon="-106.635943"><ele>3136.0</ele></trkpt>
    <trkpt lat="39.375024" lon="-106.636806"><ele>3143.0</ele></trkpt>
    <trkpt lat="39.374866" lon="-106.637688"><ele>3150.1</ele></trkpt>
  </trkseg></trk>
</gpx>
